{
  "type": "FeatureCollection",
  "features": [
    {
      "type": "Feature",
      "properties": {
        "norad_id": 33860,
        "name": "IRIDIUM 33 DEB",
        "group": "iridium-33-debris",
        "lat": 40.18577234918857,
        "lon": 31.57520205609925,
        "alt_km": 661.9400230100036,
        "timestamp": "2025-12-09T20:37:09.673809+00:00",
        "meta_object_name": "IRIDIUM 33 DEB",
        "meta_object_id": "1997-051AD",
        "meta_epoch": "2025-12-09T02:41:58.809408",
        "meta_mean_motion": 14.67293225,
        "meta_eccentricity": 0.00079354,
        "meta_inclination": 86.3836,
        "meta_ra_of_asc_node": 28.8434,
        "meta_arg_of_pericenter": 10.3707,
        "meta_mean_anomaly": 48.4876,
        "meta_ephemeris_type": 0,
        "meta_classification_type": "U",
        "meta_norad_cat_id": 33860,
        "meta_element_set_no": 999,
        "meta_rev_at_epoch": 88669,
        "meta_bstar": 0.001421155,
        "meta_mean_motion_dot": 8.042e-05,
        "meta_mean_motion_ddot": 0,
        "tle_line1": "1 33860U 97051AD  25343.11248622  .00008042  00000+0  14212-2 0  9990",
        "tle_line2": "2 33860  86.3836  28.8434 0007935  10.3707  48.4876 14.67293225886692"
      },
      "geometry": {
        "type": "Point",
        "coordinates": [
          31.57520205609925,
          40.18577234918857
        ]
      }
    },
    {
      "type": "Feature",
      "properties": {
        "norad_id": 33862,
        "name": "IRIDIUM 33 DEB",
        "group": "iridium-33-debris",
        "lat": 53.38599187187635,
        "lon": 43.648854729873385,
        "alt_km": 623.7974286888666,
        "timestamp": "2025-12-09T20:37:09.673820+00:00",
        "meta_object_name": "IRIDIUM 33 DEB",
        "meta_object_id": "1997-051AF",
        "meta_epoch": "2025-12-09T10:37:00.405120",
        "meta_mean_motion": 14.69387938,
        "meta_eccentricity": 0.00537298,
        "meta_inclination": 86.4087,
        "meta_ra_of_asc_node": 38.984,
        "meta_arg_of_pericenter": 80.2159,
        "meta_mean_anomaly": 290.4324,
        "meta_ephemeris_type": 0,
        "meta_classification_type": "U",
        "meta_norad_cat_id": 33862,
        "meta_element_set_no": 999,
        "meta_rev_at_epoch": 88775,
        "meta_bstar": 0.0018727165,
        "meta_mean_motion_dot": 0.00011351,
        "meta_mean_motion_ddot": 0,
        "tle_line1": "1 33862U 97051AF  25343.44236580  .00011351  00000+0  18727-2 0  9990",
        "tle_line2": "2 33862  86.4087  38.9840 0053729  80.2159 290.4324 14.69387938887757"
      },
      "geometry": {
        "type": "Point",
        "coordinates": [
          43.648854729873385,
          53.38599187187635
        ]
      }
    },
    {
      "type": "Feature",
      "properties": {
        "norad_id": 33866,
        "name": "IRIDIUM 33 DEB",
        "group": "iridium-33-debris",
        "lat": -37.45815431219138,
        "lon": -82.90403918254586,
        "alt_km": 757.4721137336328,
        "timestamp": "2025-12-09T20:37:09.673832+00:00",
        "meta_object_name": "IRIDIUM 33 DEB",
        "meta_object_id": "1997-051AK",
        "meta_epoch": "2025-12-09T14:37:40.342944",
        "meta_mean_motion": 14.25258723,
        "meta_eccentricity": 0.01142216,
        "meta_inclination": 86.3001,
        "meta_ra_of_asc_node": 94.3599,
        "meta_arg_of_pericenter": 171.3653,
        "meta_mean_anomaly": 205.0241,
        "meta_ephemeris_type": 0,
        "meta_classification_type": "U",
        "meta_norad_cat_id": 33866,
        "meta_element_set_no": 999,
        "meta_rev_at_epoch": 86766,
        "meta_bstar": 0.0011962752,
        "meta_mean_motion_dot": 3.03e-05,
        "meta_mean_motion_ddot": 0,
        "tle_line1": "1 33866U 97051AK  25343.60949471  .00003030  00000+0  11963-2 0  9992",
        "tle_line2": "2 33866  86.3001  94.3599 0114221 171.3653 205.0241 14.25258723867668"
      },
      "geometry": {
        "type": "Point",
        "coordinates": [
          -82.90403918254586,
          -37.45815431219138
        ]
      }
    },
    {
      "type": "Feature",
      "properties": {
        "norad_id": 33867,
        "name": "IRIDIUM 33 DEB",
        "group": "iridium-33-debris",
        "lat": -63.619386707041045,
        "lon": 178.96349793712434,
        "alt_km": 396.1348404846385,
        "timestamp": "2025-12-09T20:37:09.673843+00:00",
        "meta_object_name": "IRIDIUM 33 DEB",
        "meta_object_id": "1997-051AL",
        "meta_epoch": "2025-12-09T11:53:31.735680",
        "meta_mean_motion": 15.61827995,
        "meta_eccentricity": 0.00131638,
        "meta_inclination": 86.3636,
        "meta_ra_of_asc_node": 351.7835,
        "meta_arg_of_pericenter": 91.8218,
        "meta_mean_anomaly": 268.4555,
        "meta_ephemeris_type": 0,
        "meta_classification_type": "U",
        "meta_norad_cat_id": 33867,
        "meta_element_set_no": 999,
        "meta_rev_at_epoch": 89460,
        "meta_bstar": 0.0081006888,
        "meta_mean_motion_dot": 0.00770772,
        "meta_mean_motion_ddot": 0,
        "tle_line1": "1 33867U 97051AL  25343.49550620  .00770772  00000+0  81007-2 0  9994",
        "tle_line2": "2 33867  86.3636 351.7835 0013163  91.8218 268.4555 15.61827995894601"
      },
      "geometry": {
        "type": "Point",
        "coordinates": [
          178.96349793712434,
          -63.619386707041045
        ]
      }
    },
    {
      "type": "Feature",
      "properties": {
        "norad_id": 33870,
        "name": "IRIDIUM 33 DEB",
        "group": "iridium-33-debris",
        "lat": 77.45656009370789,
        "lon": -137.0611061295819,
        "alt_km": 730.925163914887,
        "timestamp": "2025-12-09T20:37:09.673854+00:00",
        "meta_object_name": "IRIDIUM 33 DEB",
        "meta_object_id": "1997-051AP",
        "meta_epoch": "2025-12-09T15:56:18.830976",
        "meta_mean_motion": 14.45825924,
        "meta_eccentricity": 0.0021132,
        "meta_inclination": 86.3746,
        "meta_ra_of_asc_node": 59.579,
        "meta_arg_of_pericenter": 188.1728,
        "meta_mean_anomaly": 339.5682,
        "meta_ephemeris_type": 0,
        "meta_classification_type": "U",
        "meta_norad_cat_id": 33870,
        "meta_element_set_no": 999,
        "meta_rev_at_epoch": 88092,
        "meta_bstar": 0.0013243244,
        "meta_mean_motion_dot": 4.731e-05,
        "meta_mean_motion_ddot": 0,
        "tle_line1": "1 33870U 97051AP  25343.66410684  .00004731  00000+0  13243-2 0  9994",
        "tle_line2": "2 33870  86.3746  59.5790 0021132 188.1728 339.5682 14.45825924880923"
      },
      "geometry": {
        "type": "Point",
        "coordinates": [
          -137.0611061295819,
          77.45656009370789
        ]
      }
    },
    {
      "type": "Feature",
      "properties": {
        "norad_id": 33881,
        "name": "IRIDIUM 33 DEB",
        "group": "iridium-33-debris",
        "lat": -40.187537977038524,
        "lon": -68.94638493647614,
        "alt_km": 675.986463472329,
        "timestamp": "2025-12-09T20:37:09.673865+00:00",
        "meta_object_name": "IRIDIUM 33 DEB",
        "meta_object_id": "1997-051BA",
        "meta_epoch": "2025-12-09T10:01:33.652704",
        "meta_mean_motion": 14.56473135,
        "meta_eccentricity": 0.00614296,
        "meta_inclination": 86.3869,
        "meta_ra_of_asc_node": 108.1859,
        "meta_arg_of_pericenter": 185.4197,
        "meta_mean_anomaly": 241.4979,
        "meta_ephemeris_type": 0,
        "meta_classification_type": "U",
        "meta_norad_cat_id": 33881,
        "meta_element_set_no": 999,
        "meta_rev_at_epoch": 87452,
        "meta_bstar": 0.0028428363,
        "meta_mean_motion_dot": 0.00012995,
        "meta_mean_motion_ddot": 0,
        "tle_line1": "1 33881U 97051BA  25343.41775061  .00012995  00000+0  28428-2 0  9994",
        "tle_line2": "2 33881  86.3869 108.1859 0061429 185.4197 241.4979 14.56473135874525"
      },
      "geometry": {
        "type": "Point",
        "coordinates": [
          -68.94638493647614,
          -40.187537977038524
        ]
      }
    },
    {
      "type": "Feature",
      "properties": {
        "norad_id": 33884,
        "name": "IRIDIUM 33 DEB",
        "group": "iridium-33-debris",
        "lat": -49.473022449657385,
        "lon": 6.858802286309023,
        "alt_km": 638.3324664150641,
        "timestamp": "2025-12-09T20:37:09.673876+00:00",
        "meta_object_name": "IRIDIUM 33 DEB",
        "meta_object_id": "1997-051BD",
        "meta_epoch": "2025-12-09T13:25:33.041280",
        "meta_mean_motion": 14.77329371,
        "meta_eccentricity": 0.00100119,
        "meta_inclination": 86.3692,
        "meta_ra_of_asc_node": 11.2536,
        "meta_arg_of_pericenter": 335.9245,
        "meta_mean_anomaly": 181.5662,
        "meta_ephemeris_type": 0,
        "meta_classification_type": "U",
        "meta_norad_cat_id": 33884,
        "meta_element_set_no": 999,
        "meta_rev_at_epoch": 88800,
        "meta_bstar": 0.0018734779,
        "meta_mean_motion_dot": 0.00013349,
        "meta_mean_motion_ddot": 0,
        "tle_line1": "1 33884U 97051BD  25343.55941020  .00013349  00000+0  18735-2 0  9996",
        "tle_line2": "2 33884  86.3692  11.2536 0010011 335.9245 181.5662 14.77329371888001"
      },
      "geometry": {
        "type": "Point",
        "coordinates": [
          6.858802286309023,
          -49.473022449657385
        ]
      }
    }
  ]
}